{
    "links": {
        "self": "http://www.neowsapp.com/rest/v1/neo/54055110?api_key=iIulBulltgU6a56xZRHN4H3l9WmuAYTsLGpBGhQ2"
    },
    "id": "54055110",
    "neo_reference_id": "54055110",
    "name": "(2020 TF3)",
    "designation": "2020 TF3",
    "nasa_jpl_url": "http://ssd.jpl.nasa.gov/sbdb.cgi?sstr=54055110",
    "absolute_magnitude_h": 25.944,
    "estimated_diameter": {
        "kilometers": {
            "estimated_diameter_min": 0.0172089739,
            "estimated_diameter_max": 0.0384804355
        },
        "meters": {
            "estimated_diameter_min": 17.2089739274,
            "estimated_diameter_max": 38.4804355248
        },
        "miles": {
            "estimated_diameter_min": 0.0106931573,
            "estimated_diameter_max": 0.0239106267
        },
        "feet": {
            "estimated_diameter_min": 56.4598900201,
            "estimated_diameter_max": 126.2481520871
        }
    },
    "is_potentially_hazardous_asteroid": false,
    "close_approach_data": [
        {
            "close_approach_date": "2020-10-11",
            "close_approach_date_full": "2020-Oct-11 17:07",
            "epoch_date_close_approach": 1602436020000,
            "relative_velocity": {
                "kilometers_per_second": "7.7170085718",
                "kilometers_per_hour": "27781.2308584203",
                "miles_per_hour": "17262.1764742223"
            },
            "miss_distance": {
                "astronomical": "0.0290275281",
                "lunar": "11.2917084309",
                "kilometers": "4342456.375125147",
                "miles": "2698277.2707231486"
            },
            "orbiting_body": "Earth"
        }
    ],
    "orbital_data": {
        "orbit_id": "2",
        "orbit_determination_date": "2020-10-17 08:35:20",
        "first_observation_date": "2020-10-08",
        "last_observation_date": "2020-10-17",
        "data_arc_in_days": 9,
        "observations_used": 31,
        "orbit_uncertainty": "7",
        "minimum_orbit_intersection": ".0276185",
        "jupiter_tisserand_invariant": "3.721",
        "epoch_osculation": "2459000.5",
        "eccentricity": ".4856677014611394",
        "semi_major_axis": "1.959066196074009",
        "inclination": "6.760742636221164",
        "ascending_node_longitude": "14.28871576889217",
        "orbital_period": "1001.548749842924",
        "perihelion_distance": "1.007611019616527",
        "perihelion_argument": "22.79704075820902",
        "aphelion_distance": "2.91052137253149",
        "perihelion_time": "2459149.529005406558",
        "mean_anomaly": "306.4325206788238",
        "mean_motion": ".3594433122266488",
        "equinox": "J2000",
        "orbit_class": {
            "orbit_class_type": "APO",
            "orbit_class_description": "Near-Earth asteroid orbits which cross the Earth’s orbit similar to that of 1862 Apollo",
            "orbit_class_range": "a (semi-major axis) > 1.0 AU; q (perihelion) < 1.017 AU"
        }
    },
    "is_sentry_object": false
}